[{"OBJECT_NAME":"STARLINK-5297","OBJECT_ID":"2022-141B","EPOCH":"2026-03-09T03:33:45.890784","MEAN_MOTION":15.08843063,"ECCENTRICITY":0.00013468,"INCLINATION":53.2179,"RA_OF_ASC_NODE":16.6833,"ARG_OF_PERICENTER":88.467,"MEAN_ANOMALY":271.6477,"EPHEMERIS_TYPE":0,"CLASSIFICATION_TYPE":"U","NORAD_CAT_ID":54158,"ELEMENT_SET_NO":999,"REV_AT_EPOCH":18563,"BSTAR":-3.8191817e-5,"MEAN_MOTION_DOT":-8.96e-6,"MEAN_MOTION_DDOT":0},{"OBJECT_NAME":"NOAA 17 DEB","OBJECT_ID":"2002-032BW","EPOCH":"2026-03-08T22:40:23.580768","MEAN_MOTION":15.05196658,"ECCENTRICITY":0.00149213,"INCLINATION":98.7181,"RA_OF_ASC_NODE":121.0481,"ARG_OF_PERICENTER":217.4424,"MEAN_ANOMALY":142.5761,"EPHEMERIS_TYPE":0,"CLASSIFICATION_TYPE":"U","NORAD_CAT_ID":48737,"ELEMENT_SET_NO":999,"REV_AT_EPOCH":26108,"BSTAR":0.0055556624,"MEAN_MOTION_DOT":0.00080221,"MEAN_MOTION_DDOT":0}]
